[{"OBJECT_NAME":"STARLINK-11495 [DTC]","OBJECT_ID":"2024-237J","EPOCH":"2026-03-09T22:25:44.483232","MEAN_MOTION":15.70870689,"ECCENTRICITY":0.00013368,"INCLINATION":43.0001,"RA_OF_ASC_NODE":55.7715,"ARG_OF_PERICENTER":265.5086,"MEAN_ANOMALY":94.5629,"EPHEMERIS_TYPE":0,"CLASSIFICATION_TYPE":"U","NORAD_CAT_ID":62275,"ELEMENT_SET_NO":999,"REV_AT_EPOCH":7303,"BSTAR":0.0018776187,"MEAN_MOTION_DOT":0.00248126,"MEAN_MOTION_DDOT":0},{"OBJECT_NAME":"OBJECT E","OBJECT_ID":"2021-035E","EPOCH":"2026-02-24T23:27:52.334784","MEAN_MOTION":15.69205353,"ECCENTRICITY":0.0007182,"INCLINATION":41.4547,"RA_OF_ASC_NODE":257.9148,"ARG_OF_PERICENTER":354.279,"MEAN_ANOMALY":5.7969,"EPHEMERIS_TYPE":0,"CLASSIFICATION_TYPE":"U","NORAD_CAT_ID":63523,"ELEMENT_SET_NO":999,"REV_AT_EPOCH":5075,"BSTAR":0.00060614223,"MEAN_MOTION_DOT":0.00073106,"MEAN_MOTION_DDOT":0}]
